IRIDIUM 36 [-]          
1 24967U 97056C   23249.52346837  .00000475  00000+0  15547-3 0  9993
2 24967  86.3912  85.7526 0001943  83.8421 276.2997 14.36381444358922
IRIDIUM 39 [-]          
1 25042U 97069D   23248.95215251  .00000592  00000+0  15598-3 0  9999
2 25042  86.3928 129.6042 0017219 321.4930  38.5043 14.47335555354857
IRIDIUM 38 [-]          
1 25043U 97069E   23249.13430272  .00000501  00000+0  16289-3 0  9991
2 25043  86.4007 146.4183 0004285  85.5416 274.6270 14.36863248352571
IRIDIUM 42 [-]          
1 25077U 97077A   23249.19932324  .00000532  00000+0  17935-3 0  9991
2 25077  86.4019 151.7629 0002815  83.8626 276.2891 14.35182394347932
IRIDIUM 44 [-]          
1 25078U 97077B   23249.21894430  .00000481  00000+0  14974-3 0  9993
2 25078  86.3980 135.4438 0003108  47.8836 312.2627 14.38963126350198
IRIDIUM 45 [-]          
1 25104U 97082A   23249.26522317  .00013638  00000+0  89962-3 0  9993
2 25104  86.3822 355.0903 0182944 188.7225 171.0816 14.94554570354188
IRIDIUM 24 [-]          
1 25105U 97082B   23249.23982107  .00000682  00000+0  20699-3 0  9995
2 25105  86.3971 355.4972 0013505  68.0576 292.2057 14.40710236349595
IRIDIUM 51 [-]          
1 25262U 98018A   23249.07870801  .00018624  00000+0  10547-2 0  9993
2 25262  86.3990   5.8062 0169954 145.7166 215.5180 15.01361957348509
